FALCONSAT-6             
1 43815U 18099BK  26068.72544389  .00005029  00000+0  19477-3 0  9998
2 43815  97.3865 145.8165 0014370 297.0944 181.0714 15.26532865398556
STARLINK-32668          
1 62212U 24229W   26067.60967246  .00032951  00000+0  12001-2 0  9998
2 62212  43.0037 273.5771 0002246 259.5738 100.4861 15.27621238 70438
